{"type": "FeatureCollection", "features": [ {"type": "Feature", "properties": {"norad_id": 66818, "name": "STARLINK-35994", "group": "last-30-days", "lat": -41.973610216037464, "lon": 128.7998771780678, "alt_km": 385.4795951586502, "timestamp": "2025-12-20T16:47:35.024275+00:00", "meta": {"OBJECT_NAME": "STARLINK-35994", "OBJECT_ID": "2025-278AD", "EPOCH": "2025-12-20T12:00:02.000160", "MEAN_MOTION": 15.62422895, "ECCENTRICITY": 0.0001381, "INCLINATION": 42.9992, "RA_OF_ASC_NODE": 204.8713, "ARG_OF_PERICENTER": 251.2941, "MEAN_ANOMALY": 345.6573, "EPHEMERIS_TYPE": 0, "CLASSIFICATION_TYPE": "U", "NORAD_CAT_ID": 66818, "ELEMENT_SET_NO": 999, "REV_AT_EPOCH": 420, "BSTAR": -0.023989, "MEAN_MOTION_DOT": -0.01932201, "MEAN_MOTION_DDOT": 0}, "tle": {"line1": "1 66818U 25278AD  25354.50002315 -.01932201  00000+0 -23989-1 0  9999", "line2": "2 66818  42.9992 204.8713 0001381 251.2941 345.6573 15.62422895  4201"}}, "geometry": {"type": "Point", "coordinates": [128.7998771780678, -41.973610216037464]}}, {"type": "Feature", "properties": {"norad_id": 66819, "name": "STARLINK-35989", "group": "last-30-days", "lat": -41.183377437434146, "lon": 133.79945226040482, "alt_km": 385.47596352009896, "timestamp": "2025-12-20T16:47:35.024285+00:00", "meta": {"OBJECT_NAME": "STARLINK-35989", "OBJECT_ID": "2025-278AE", "EPOCH": "2025-12-20T12:00:02.000160", "MEAN_MOTION": 15.62424612, "ECCENTRICITY": 0.0001395, "INCLINATION": 42.9995, "RA_OF_ASC_NODE": 204.861, "ARG_OF_PERICENTER": 251.1747, "MEAN_ANOMALY": 349.6103, "EPHEMERIS_TYPE": 0, "CLASSIFICATION_TYPE": "U", "NORAD_CAT_ID": 66819, "ELEMENT_SET_NO": 999, "REV_AT_EPOCH": 420, "BSTAR": -0.024026, "MEAN_MOTION_DOT": -0.01934977, "MEAN_MOTION_DDOT": 0}, "tle": {"line1": "1 66819U 25278AE  25354.50002315 -.01934977  00000+0 -24026-1 0  9995", "line2": "2 66819  42.9995 204.8610 0001395 251.1747 349.6103 15.62424612  4201"}}, "geometry": {"type": "Point", "coordinates": [133.79945226040482, -41.183377437434146]}}, {"type": "Feature", "properties": {"norad_id": 66820, "name": "KOMPSAT-7", "group": "last-30-days", "lat": 79.0651689898938, "lon": 164.43635309088913, "alt_km": 563.5768229694431, "timestamp": "2025-12-20T16:47:35.024295+00:00", "meta": {"OBJECT_NAME": "KOMPSAT-7", "OBJECT_ID": "2025-279A", "EPOCH": "2025-12-15T00:17:19.244256", "MEAN_MOTION": 15.0015594, "ECCENTRICITY": 0.00093948, "INCLINATION": 97.641, "RA_OF_ASC_NODE": 294.8339, "ARG_OF_PERICENTER": 252.0315, "MEAN_ANOMALY": 107.9885, "EPHEMERIS_TYPE": 0, "CLASSIFICATION_TYPE": "U", "NORAD_CAT_ID": 66820, "ELEMENT_SET_NO": 999, "REV_AT_EPOCH": 199, "BSTAR": 0.00025788518, "MEAN_MOTION_DOT": 3.163e-05, "MEAN_MOTION_DDOT": 0}, "tle": {"line1": "1 66820U 25279A   25349.01202829  .00003163  00000+0  25789-3 0  9990", "line2": "2 66820  97.6410 294.8339 0009394 252.0315 107.9885 15.00155940  1999"}}, "geometry": {"type": "Point", "coordinates": [164.43635309088913, 79.0651689898938]}}, {"type": "Feature", "properties": {"norad_id": 66821, "name": "STARLINK-35966", "group": "last-30-days", "lat": -21.657994810597838, "lon": 4.93133535266774, "alt_km": 413.19802213892945, "timestamp": "2025-12-20T16:47:35.024309+00:00", "meta": {"OBJECT_NAME": "STARLINK-35966", "OBJECT_ID": "2025-280A", "EPOCH": "2025-12-20T12:00:02.000160", "MEAN_MOTION": 15.52481762, "ECCENTRICITY": 0.0003372, "INCLINATION": 69.9997, "RA_OF_ASC_NODE": 177.1617, "ARG_OF_PERICENTER": 267.3976, "MEAN_ANOMALY": 259.9321, "EPHEMERIS_TYPE": 0, "CLASSIFICATION_TYPE": "U", "NORAD_CAT_ID": 66821, "ELEMENT_SET_NO": 999, "REV_AT_EPOCH": 414, "BSTAR": 0.0012068, "MEAN_MOTION_DOT": 0.00074679, "MEAN_MOTION_DDOT": 0}, "tle": {"line1": "1 66821U 25280A   25354.50002315  .00074679  00000+0  12068-2 0  9996", "line2": "2 66821  69.9997 177.1617 0003372 267.3976 259.9321 15.52481762  4140"}}, "geometry": {"type": "Point", "coordinates": [4.93133535266774, -21.657994810597838]}}, {"type": "Feature", "properties": {"norad_id": 66822, "name": "STARLINK-35958", "group": "last-30-days", "lat": -23.439823646209202, "lon": 5.699796267400636, "alt_km": 413.2387424483886, "timestamp": "2025-12-20T16:47:35.024319+00:00", "meta": {"OBJECT_NAME": "STARLINK-35958", "OBJECT_ID": "2025-280B", "EPOCH": "2025-12-20T12:00:02.000160", "MEAN_MOTION": 15.52479117, "ECCENTRICITY": 0.0003223, "INCLINATION": 69.9997, "RA_OF_ASC_NODE": 177.1603, "ARG_OF_PERICENTER": 264.695, "MEAN_ANOMALY": 264.5535, "EPHEMERIS_TYPE": 0, "CLASSIFICATION_TYPE": "U", "NORAD_CAT_ID": 66822, "ELEMENT_SET_NO": 999, "REV_AT_EPOCH": 414, "BSTAR": 0.0011995, "MEAN_MOTION_DOT": 0.00074209, "MEAN_MOTION_DDOT": 0}, "tle": {"line1": "1 66822U 25280B   25354.50002315  .00074209  00000+0  11995-2 0  9994", "line2": "2 66822  69.9997 177.1603 0003223 264.6950 264.5535 15.52479117  4143"}}, "geometry": {"type": "Point", "coordinates": [5.699796267400636, -23.439823646209202]}}, {"type": "Feature", "properties": {"norad_id": 66823, "name": "STARLINK-35957", "group": "last-30-days", "lat": -25.217583431908185, "lon": 6.487397610542497, "alt_km": 413.32563597492754, "timestamp": "2025-12-20T16:47:35.024329+00:00", "meta": {"OBJECT_NAME": "STARLINK-35957", "OBJECT_ID": "2025-280C", "EPOCH": "2025-12-20T12:00:02.000160", "MEAN_MOTION": 15.52476583, "ECCENTRICITY": 0.0003189, "INCLINATION": 69.9997, "RA_OF_ASC_NODE": 177.1571, "ARG_OF_PERICENTER": 264.5973, "MEAN_ANOMALY": 266.5713, "EPHEMERIS_TYPE": 0, "CLASSIFICATION_TYPE": "U", "NORAD_CAT_ID": 66823, "ELEMENT_SET_NO": 999, "REV_AT_EPOCH": 414, "BSTAR": 0.001248, "MEAN_MOTION_DOT": 0.00077244, "MEAN_MOTION_DDOT": 0}, "tle": {"line1": "1 66823U 25280C   25354.50002315  .00077244  00000+0  12480-2 0  9997", "line2": "2 66823  69.9997 177.1571 0003189 264.5973 266.5713 15.52476583  4147"}}, "geometry": {"type": "Point", "coordinates": [6.487397610542497, -25.217583431908185]}}, {"type": "Feature", "properties": {"norad_id": 66824, "name": "STARLINK-35896", "group": "last-30-days", "lat": -26.980712067639256, "lon": 7.294868197179801, "alt_km": 413.3316958934047, "timestamp": "2025-12-20T16:47:35.024341+00:00", "meta": {"OBJECT_NAME": "STARLINK-35896", "OBJECT_ID": "2025-280D", "EPOCH": "2025-12-20T12:00:02.000160", "MEAN_MOTION": 15.52487937, "ECCENTRICITY": 0.0003129, "INCLINATION": 69.9996, "RA_OF_ASC_NODE": 177.1551, "ARG_OF_PERICENTER": 262.7884, "MEAN_ANOMALY": 270.2792, "EPHEMERIS_TYPE": 0, "CLASSIFICATION_TYPE": "U", "NORAD_CAT_ID": 66824, "ELEMENT_SET_NO": 999, "REV_AT_EPOCH": 414, "BSTAR": 0.0012082, "MEAN_MOTION_DOT": 0.00074778, "MEAN_MOTION_DDOT": 0}, "tle": {"line1": "1 66824U 25280D   25354.50002315  .00074778  00000+0  12082-2 0  9995", "line2": "2 66824  69.9996 177.1551 0003129 262.7884 270.2792 15.52487937  4144"}}, "geometry": {"type": "Point", "coordinates": [7.294868197179801, -26.980712067639256]}}, {"type": "Feature", "properties": {"norad_id": 66825, "name": "STARLINK-35476", "group": "last-30-days", "lat": -28.75304917685823, "lon": 8.134498738275607, "alt_km": 413.4733566403638, "timestamp": "2025-12-20T16:47:35.024351+00:00", "meta": {"OBJECT_NAME": "STARLINK-35476", "OBJECT_ID": "2025-280E", "EPOCH": "2025-12-20T12:00:02.000160", "MEAN_MOTION": 15.52481141, "ECCENTRICITY": 0.0003103, "INCLINATION": 69.9996, "RA_OF_ASC_NODE": 177.1528, "ARG_OF_PERICENTER": 264.3134, "MEAN_ANOMALY": 270.6829, "EPHEMERIS_TYPE": 0, "CLASSIFICATION_TYPE": "U", "NORAD_CAT_ID": 66825, "ELEMENT_SET_NO": 999, "REV_AT_EPOCH": 399, "BSTAR": 0.0011883, "MEAN_MOTION_DOT": 0.00073514, "MEAN_MOTION_DDOT": 0}, "tle": {"line1": "1 66825U 25280E   25354.50002315  .00073514  00000+0  11883-2 0  9991", "line2": "2 66825  69.9996 177.1528 0003103 264.3134 270.6829 15.52481141  3995"}}, "geometry": {"type": "Point", "coordinates": [8.134498738275607, -28.75304917685823]}}, {"type": "Feature", "properties": {"norad_id": 66826, "name": "STARLINK-35898", "group": "last-30-days", "lat": -30.513141150116557, "lon": 8.999123101133069, "alt_km": 413.5493150743405, "timestamp": "2025-12-20T16:47:35.024361+00:00", "meta": {"OBJECT_NAME": "STARLINK-35898", "OBJECT_ID": "2025-280F", "EPOCH": "2025-12-20T12:00:02.000160", "MEAN_MOTION": 15.52478316, "ECCENTRICITY": 0.0003104, "INCLINATION": 69.9999, "RA_OF_ASC_NODE": 177.1501, "ARG_OF_PERICENTER": 264.7658, "MEAN_ANOMALY": 272.1482, "EPHEMERIS_TYPE": 0, "CLASSIFICATION_TYPE": "U", "NORAD_CAT_ID": 66826, "ELEMENT_SET_NO": 999, "REV_AT_EPOCH": 414, "BSTAR": 0.0012368, "MEAN_MOTION_DOT": 0.00076546, "MEAN_MOTION_DDOT": 0}, "tle": {"line1": "1 66826U 25280F   25354.50002315  .00076546  00000+0  12368-2 0  9999", "line2": "2 66826  69.9999 177.1501 0003104 264.7658 272.1482 15.52478316  4146"}}, "geometry": {"type": "Point", "coordinates": [8.999123101133069, -30.513141150116557]}}, {"type": "Feature", "properties": {"norad_id": 66827, "name": "STARLINK-35959", "group": "last-30-days", "lat": -32.26761060965847, "lon": 9.896448356908621, "alt_km": 413.58038875624334, "timestamp": "2025-12-20T16:47:35.024370+00:00", "meta": {"OBJECT_NAME": "STARLINK-35959", "OBJECT_ID": "2025-280G", "EPOCH": "2025-12-20T12:00:02.000160", "MEAN_MOTION": 15.52477524, "ECCENTRICITY": 0.0003103, "INCLINATION": 69.9999, "RA_OF_ASC_NODE": 177.1478, "ARG_OF_PERICENTER": 263.9417, "MEAN_ANOMALY": 274.8888, "EPHEMERIS_TYPE": 0, "CLASSIFICATION_TYPE": "U", "NORAD_CAT_ID": 66827, "ELEMENT_SET_NO": 999, "REV_AT_EPOCH": 414, "BSTAR": 0.0012563, "MEAN_MOTION_DOT": 0.00077761, "MEAN_MOTION_DDOT": 0}, "tle": {"line1": "1 66827U 25280G   25354.50002315  .00077761  00000+0  12563-2 0  9997", "line2": "2 66827  69.9999 177.1478 0003103 263.9417 274.8888 15.52477524  4142"}}, "geometry": {"type": "Point", "coordinates": [9.896448356908621, -32.26761060965847]}}]}